[{"OBJECT_NAME":"MUOS-2","OBJECT_ID":"2013-036A","EPOCH":"2026-04-05T13:10:38.867808","MEAN_MOTION":1.0027349,"ECCENTRICITY":0.00511858,"INCLINATION":4.8513,"RA_OF_ASC_NODE":45.3911,"ARG_OF_PERICENTER":182.5624,"MEAN_ANOMALY":335.5283,"EPHEMERIS_TYPE":0,"CLASSIFICATION_TYPE":"U","NORAD_CAT_ID":39206,"ELEMENT_SET_NO":999,"REV_AT_EPOCH":4646,"BSTAR":0,"MEAN_MOTION_DOT":-9.0e-8,"MEAN_MOTION_DDOT":0},{"OBJECT_NAME":"ALPHASAT","OBJECT_ID":"2013-038A","EPOCH":"2026-04-05T07:48:38.441952","MEAN_MOTION":1.00273347,"ECCENTRICITY":0.0002262,"INCLINATION":2.9881,"RA_OF_ASC_NODE":1.9506,"ARG_OF_PERICENTER":42.189,"MEAN_ANOMALY":291.5274,"EPHEMERIS_TYPE":0,"CLASSIFICATION_TYPE":"U","NORAD_CAT_ID":39215,"ELEMENT_SET_NO":999,"REV_AT_EPOCH":4328,"BSTAR":0,"MEAN_MOTION_DOT":1.36e-6,"MEAN_MOTION_DDOT":0},{"OBJECT_NAME":"INSAT-3D","OBJECT_ID":"2013-038B","EPOCH":"2026-04-05T13:21:36.438336","MEAN_MOTION":1.0027158,"ECCENTRICITY":0.00017365,"INCLINATION":1.7384,"RA_OF_ASC_NODE":83.4474,"ARG_OF_PERICENTER":267.6885,"MEAN_ANOMALY":172.6079,"EPHEMERIS_TYPE":0,"CLASSIFICATION_TYPE":"U","NORAD_CAT_ID":39216,"ELEMENT_SET_NO":999,"REV_AT_EPOCH":4635,"BSTAR":0,"MEAN_MOTION_DOT":-3.37e-6,"MEAN_MOTION_DDOT":0},{"OBJECT_NAME":"WGS F6 (USA 244)","OBJECT_ID":"2013-041A","EPOCH":"2026-04-05T12:44:38.685120","MEAN_MOTION":1.00269711,"ECCENTRICITY":2.906e-5,"INCLINATION":0.0135,"RA_OF_ASC_NODE":198.3272,"ARG_OF_PERICENTER":246.4597,"MEAN_ANOMALY":165.0084,"EPHEMERIS_TYPE":0,"CLASSIFICATION_TYPE":"U","NORAD_CAT_ID":39222,"ELEMENT_SET_NO":999,"REV_AT_EPOCH":4533,"BSTAR":0,"MEAN_MOTION_DOT":0,"MEAN_MOTION_DDOT":0},{"OBJECT_NAME":"ES'HAIL 1","OBJECT_ID":"2013-044A","EPOCH":"2026-04-05T07:48:38.441952","MEAN_MOTION":1.00271651,"ECCENTRICITY":0.0002779,"INCLINATION":0.0572,"RA_OF_ASC_NODE":0.4441,"ARG_OF_PERICENTER":17.7194,"MEAN_ANOMALY":318.1298,"EPHEMERIS_TYPE":0,"CLASSIFICATION_TYPE":"U","NORAD_CAT_ID":39233,"ELEMENT_SET_NO":999,"REV_AT_EPOCH":4589,"BSTAR":0,"MEAN_MOTION_DOT":1.44e-6,"MEAN_MOTION_DDOT":0},{"OBJECT_NAME":"GSAT-7","OBJECT_ID":"2013-044B","EPOCH":"2026-04-05T13:16:15.604896","MEAN_MOTION":1.00272723,"ECCENTRICITY":0.00051899,"INCLINATION":0.1062,"RA_OF_ASC_NODE":86.1628,"ARG_OF_PERICENTER":214.7434,"MEAN_ANOMALY":166.0019,"EPHEMERIS_TYPE":0,"CLASSIFICATION_TYPE":"U","NORAD_CAT_ID":39234,"ELEMENT_SET_NO":999,"REV_AT_EPOCH":4453,"BSTAR":0,"MEAN_MOTION_DOT":-7.5e-7,"MEAN_MOTION_DDOT":0},{"OBJECT_NAME":"AMOS-4","OBJECT_ID":"2013-045A","EPOCH":"2026-04-05T14:15:14.921280","MEAN_MOTION":1.00270635,"ECCENTRICITY":0.00031383,"INCLINATION":0.0304,"RA_OF_ASC_NODE":123.2709,"ARG_OF_PERICENTER":244.6663,"MEAN_ANOMALY":104.7652,"EPHEMERIS_TYPE":0,"CLASSIFICATION_TYPE":"U","NORAD_CAT_ID":39237,"ELEMENT_SET_NO":999,"REV_AT_EPOCH":4623,"BSTAR":0,"MEAN_MOTION_DOT":9.0e-8,"MEAN_MOTION_DDOT":0},{"OBJECT_NAME":"AEHF-3 (USA 246)","OBJECT_ID":"2013-050A","EPOCH":"2026-04-05T12:11:59.523648","MEAN_MOTION":1.00272001,"ECCENTRICITY":0.00898349,"INCLINATION":5.1152,"RA_OF_ASC_NODE":67.8469,"ARG_OF_PERICENTER":188.4792,"MEAN_ANOMALY":356.1979,"EPHEMERIS_TYPE":0,"CLASSIFICATION_TYPE":"U","NORAD_CAT_ID":39256,"ELEMENT_SET_NO":999,"REV_AT_EPOCH":4492,"BSTAR":0,"MEAN_MOTION_DOT":3.3e-7,"MEAN_MOTION_DDOT":0},{"OBJECT_NAME":"ASTRA 2E","OBJECT_ID":"2013-056A","EPOCH":"2026-04-05T12:52:54.191712","MEAN_MOTION":1.00272605,"ECCENTRICITY":0.00023257,"INCLINATION":0.0883,"RA_OF_ASC_NODE":44.23,"ARG_OF_PERICENTER":329.4897,"MEAN_ANOMALY":41.8209,"EPHEMERIS_TYPE":0,"CLASSIFICATION_TYPE":"U","NORAD_CAT_ID":39285,"ELEMENT_SET_NO":999,"REV_AT_EPOCH":4568,"BSTAR":0,"MEAN_MOTION_DOT":1.52e-6,"MEAN_MOTION_DDOT":0},{"OBJECT_NAME":"FM-6","OBJECT_ID":"2013-058A","EPOCH":"2026-04-05T10:25:07.509216","MEAN_MOTION":1.00280603,"ECCENTRICITY":0.00032242,"INCLINATION":0.0084,"RA_OF_ASC_NODE":194.4514,"ARG_OF_PERICENTER":2.2067,"MEAN_ANOMALY":37.035,"EPHEMERIS_TYPE":0,"CLASSIFICATION_TYPE":"U","NORAD_CAT_ID":39360,"ELEMENT_SET_NO":999,"REV_AT_EPOCH":4534,"BSTAR":0,"MEAN_MOTION_DOT":-1.6e-7,"MEAN_MOTION_DDOT":0},{"OBJECT_NAME":"RADUGA-1M 3","OBJECT_ID":"2013-062A","EPOCH":"2026-04-05T12:54:46.511712","MEAN_MOTION":1.00272385,"ECCENTRICITY":6.029e-5,"INCLINATION":5.7759,"RA_OF_ASC_NODE":73.2636,"ARG_OF_PERICENTER":279.808,"MEAN_ANOMALY":69.4671,"EPHEMERIS_TYPE":0,"CLASSIFICATION_TYPE":"U","NORAD_CAT_ID":39375,"ELEMENT_SET_NO":999,"REV_AT_EPOCH":4537,"BSTAR":0,"MEAN_MOTION_DOT":1.57e-6,"MEAN_MOTION_DDOT":0},{"OBJECT_NAME":"SES-8","OBJECT_ID":"2013-071A","EPOCH":"2026-04-05T15:01:26.347296","MEAN_MOTION":1.0027191,"ECCENTRICITY":0.00024516,"INCLINATION":0.0195,"RA_OF_ASC_NODE":256.1278,"ARG_OF_PERICENTER":149.8428,"MEAN_ANOMALY":108.3113,"EPHEMERIS_TYPE":0,"CLASSIFICATION_TYPE":"U","NORAD_CAT_ID":39460,"ELEMENT_SET_NO":999,"REV_AT_EPOCH":4371,"BSTAR":0,"MEAN_MOTION_DOT":-2.68e-6,"MEAN_MOTION_DDOT":0},{"OBJECT_NAME":"INMARSAT 5-F1","OBJECT_ID":"2013-073A","EPOCH":"2026-04-05T01:03:45.679680","MEAN_MOTION":1.00269821,"ECCENTRICITY":6.743e-5,"INCLINATION":0.0158,"RA_OF_ASC_NODE":177.5679,"ARG_OF_PERICENTER":345.08,"MEAN_ANOMALY":109.2093,"EPHEMERIS_TYPE":0,"CLASSIFICATION_TYPE":"U","NORAD_CAT_ID":39476,"ELEMENT_SET_NO":999,"REV_AT_EPOCH":4484,"BSTAR":0,"MEAN_MOTION_DOT":3.0e-7,"MEAN_MOTION_DDOT":0},{"OBJECT_NAME":"TKSAT-1 (TUPAC KATARI)","OBJECT_ID":"2013-075A","EPOCH":"2026-04-05T12:19:49.862784","MEAN_MOTION":1.00273504,"ECCENTRICITY":0.00028258,"INCLINATION":0.0551,"RA_OF_ASC_NODE":51.379,"ARG_OF_PERICENTER":314.649,"MEAN_ANOMALY":285.5394,"EPHEMERIS_TYPE":0,"CLASSIFICATION_TYPE":"U","NORAD_CAT_ID":39481,"ELEMENT_SET_NO":999,"REV_AT_EPOCH":4487,"BSTAR":0,"MEAN_MOTION_DOT":-1.94e-6,"MEAN_MOTION_DDOT":0},{"OBJECT_NAME":"EXPRESS-AM5","OBJECT_ID":"2013-077A","EPOCH":"2026-04-04T06:00:38.398752","MEAN_MOTION":1.00272338,"ECCENTRICITY":0.00020119,"INCLINATION":0.0131,"RA_OF_ASC_NODE":235.2515,"ARG_OF_PERICENTER":83.5085,"MEAN_ANOMALY":103.9948,"EPHEMERIS_TYPE":0,"CLASSIFICATION_TYPE":"U","NORAD_CAT_ID":39487,"ELEMENT_SET_NO":999,"REV_AT_EPOCH":4561,"BSTAR":0,"MEAN_MOTION_DOT":-2.8e-6,"MEAN_MOTION_DDOT":0},{"OBJECT_NAME":"GSAT-14","OBJECT_ID":"2014-001A","EPOCH":"2026-04-05T13:16:15.604896","MEAN_MOTION":1.00271864,"ECCENTRICITY":0.00030432,"INCLINATION":0.0196,"RA_OF_ASC_NODE":256.8486,"ARG_OF_PERICENTER":63.2339,"MEAN_ANOMALY":146.8397,"EPHEMERIS_TYPE":0,"CLASSIFICATION_TYPE":"U","NORAD_CAT_ID":39498,"ELEMENT_SET_NO":999,"REV_AT_EPOCH":4465,"BSTAR":0,"MEAN_MOTION_DOT":-7.5e-7,"MEAN_MOTION_DDOT":0},{"OBJECT_NAME":"THAICOM 6","OBJECT_ID":"2014-002A","EPOCH":"2026-04-05T14:55:30.617760","MEAN_MOTION":1.0027304,"ECCENTRICITY":0.00033978,"INCLINATION":0.0549,"RA_OF_ASC_NODE":113.0714,"ARG_OF_PERICENTER":320.9611,"MEAN_ANOMALY":62.279,"EPHEMERIS_TYPE":0,"CLASSIFICATION_TYPE":"U","NORAD_CAT_ID":39500,"ELEMENT_SET_NO":999,"REV_AT_EPOCH":4473,"BSTAR":0,"MEAN_MOTION_DOT":-1.2e-6,"MEAN_MOTION_DDOT":0}]
