MUOS-2                  
1 39206U 13036A   26095.54906097 -.00000009  00000+0  00000+0 0  9993
2 39206   4.8513  45.3911 0051185 182.5624 335.5283  1.00273490 46469
ALPHASAT                
1 39215U 13038A   26095.32544493  .00000136  00000+0  00000+0 0  9999
2 39215   2.9881   1.9506 0002262  42.1890 291.5274  1.00273347 43281
INSAT-3D                
1 39216U 13038B   26095.55667174 -.00000337  00000+0  00000+0 0  9991
2 39216   1.7384  83.4474 0001736 267.6885 172.6079  1.00271580 46359
WGS F6 (USA 244)        
1 39222U 13041A   26095.53100330  .00000000  00000+0  00000+0 0  9992
2 39222   0.0135 198.3272 0000290 246.4597 165.0084  1.00269711 45335
ES'HAIL 1               
1 39233U 13044A   26095.32544493  .00000144  00000+0  00000+0 0  9995
2 39233   0.0572   0.4441 0002779  17.7194 318.1298  1.00271651 45894
GSAT-7                  
1 39234U 13044B   26095.55295839 -.00000075  00000+0  00000+0 0  9992
2 39234   0.1062  86.1628 0005189 214.7434 166.0019  1.00272723 44534
AMOS-4                  
1 39237U 13045A   26095.59392270  .00000009  00000+0  00000+0 0  9993
2 39237   0.0304 123.2709 0003138 244.6663 104.7652  1.00270635 46237
AEHF-3 (USA 246)        
1 39256U 13050A   26095.50832782  .00000033  00000+0  00000+0 0  9995
2 39256   5.1152  67.8469 0089834 188.4792 356.1979  1.00272001 44924
ASTRA 2E                
1 39285U 13056A   26095.53673833  .00000152  00000+0  00000+0 0  9998
2 39285   0.0883  44.2300 0002325 329.4897  41.8209  1.00272605 45685
FM-6                    
1 39360U 13058A   26095.43411469 -.00000016  00000+0  00000+0 0  9998
2 39360   0.0084 194.4514 0003224   2.2067  37.0350  1.00280603 45345
RADUGA-1M 3             
1 39375U 13062A   26095.53803833  .00000157  00000+0  00000+0 0  9995
2 39375   5.7759  73.2636 0000602 279.8080  69.4671  1.00272385 45371
SES-8                   
1 39460U 13071A   26095.62599939 -.00000268  00000+0  00000+0 0  9993
2 39460   0.0195 256.1278 0002451 149.8428 108.3113  1.00271910 43711
INMARSAT 5-F1           
1 39476U 13073A   26095.04427870  .00000030  00000+0  00000+0 0  9998
2 39476   0.0158 177.5679 0000674 345.0800 109.2093  1.00269821 44847
TKSAT-1 (TUPAC KATARI)  
1 39481U 13075A   26095.51377156 -.00000194  00000+0  00000+0 0  9991
2 39481   0.0551  51.3790 0002825 314.6490 285.5394  1.00273504 44878
EXPRESS-AM5             
1 39487U 13077A   26094.25044443 -.00000280  00000+0  00000+0 0  9995
2 39487   0.0131 235.2515 0002011  83.5085 103.9948  1.00272338 45610
GSAT-14                 
1 39498U 14001A   26095.55295839 -.00000075  00000+0  00000+0 0  9998
2 39498   0.0196 256.8486 0003043  63.2339 146.8397  1.00271864 44652
THAICOM 6               
1 39500U 14002A   26095.62188215 -.00000120  00000+0  00000+0 0  9991
2 39500   0.0549 113.0714 0003397 320.9611  62.2790  1.00273040 44739
